OBJECT_NAME,OBJECT_ID,EPOCH,MEAN_MOTION,ECCENTRICITY,INCLINATION,RA_OF_ASC_NODE,ARG_OF_PERICENTER,MEAN_ANOMALY,EPHEMERIS_TYPE,CLASSIFICATION_TYPE,NORAD_CAT_ID,ELEMENT_SET_NO,REV_AT_EPOCH,BSTAR,MEAN_MOTION_DOT,MEAN_MOTION_DDOT
GSAT0215 (GALILEO 19),2017-079A,2026-06-22T07:04:29.761824,1.70474609,.00033879,55.0724,221.3660,264.6914,95.3449,0,U,43055,999,5307,0,.35E-6,0
GSAT0216 (GALILEO 20),2017-079B,2026-06-17T21:26:22.395264,1.70474666,.00043172,55.0732,221.4873,276.2784,83.7610,0,U,43056,999,5301,0,.34E-6,0
GSAT0217 (GALILEO 21),2017-079C,2026-06-22T05:17:01.099968,1.70474640,.00039449,55.0697,221.3658,287.9119,72.1199,0,U,43057,999,5307,0,.34E-6,0
GSAT0218 (GALILEO 22),2017-079D,2026-06-20T16:19:53.873760,1.70474354,.00055072,55.0711,221.4058,273.6284,86.3834,0,U,43058,999,5307,0,.26E-6,0
BEIDOU-3 M7 (C27),2018-003A,2026-06-20T13:44:06.873792,1.86227868,.00048475,54.3246,302.1971,94.8632,265.1875,0,U,43107,999,5741,0,-.93E-6,0
BEIDOU-3 M8 (C28),2018-003B,2026-06-20T12:24:29.623392,1.86231030,.00026155,54.3172,302.1809,260.4330,99.5328,0,U,43108,999,5742,0,-.93E-6,0
BEIDOU-3 M4 (C22),2018-018A,2026-06-22T00:48:52.168032,1.86231234,.00076644,56.6551,62.9879,21.5278,338.5408,0,U,43207,999,5683,0,-.87E-6,0
BEIDOU-3 M3 (C21),2018-018B,2026-06-22T02:24:36.301824,1.86231089,.00084158,56.6552,62.9897,342.8071,17.2007,0,U,43208,999,5683,0,-.87E-6,0
BEIDOU-3 M9 (C29),2018-029A,2026-06-22T20:31:31.675008,1.86228524,.00009901,54.1876,299.7497,157.0412,202.9586,0,U,43245,999,5600,0,-.106E-5,0
BEIDOU-3 M10 (C30),2018-029B,2026-06-22T06:03:45.298368,1.86229003,.00037585,54.1864,299.7978,40.4191,319.6047,0,U,43246,999,5597,0,-.104E-5,0
IRNSS-1I,2018-035A,2026-06-15T20:09:20.172384,1.00272046,.00178117,28.7520,74.2167,181.5598,5.5147,0,U,43286,999,3006,0,.62E-6,0
COSMOS 2527 (756),2018-053A,2026-06-19T21:36:22.597920,2.13102048,.00069063,65.5791,73.8170,238.7549,121.2143,0,U,43508,999,6233,0,-.34E-6,0
BEIDOU-2 IGSO-7 (C16),2018-057A,2026-06-21T21:50:52.598400,1.00249439,.01049526,55.1965,163.0153,238.0014,306.3526,0,U,43539,999,2917,0,-.17E-6,0
GSAT0221 (GALILEO 25),2018-060A,2026-06-19T23:56:57.831648,1.70476011,.0002564,57.1685,341.7044,301.8094,58.1599,0,U,43564,999,4921,0,-.95E-6,0
GSAT0222 (GALILEO 26),2018-060B,2026-06-21T09:22:38.520768,1.70475809,.00020342,57.1710,341.6704,246.5054,113.4691,0,U,43565,999,4928,0,-.96E-6,0
GSAT0219 (GALILEO 23),2018-060C,2026-06-21T14:40:43.032288,1.70476064,.00019224,57.1708,341.6659,320.6599,39.3222,0,U,43566,999,4926,0,-.97E-6,0
GSAT0220 (GALILEO 24),2018-060D,2026-06-21T19:58:57.383904,1.70476014,.00019676,57.1676,341.6592,309.6967,50.2822,0,U,43567,999,4925,0,-.97E-6,0
BEIDOU-3 M5 (C23),2018-062A,2026-06-20T07:53:29.386176,1.86228556,.00057181,54.0853,182.1966,290.4815,69.4793,0,U,43581,999,5369,0,.68E-6,0
BEIDOU-3 M6 (C24),2018-062B,2026-06-22T08:09:48.230784,1.86227655,.00050226,54.0853,182.1173,8.9352,351.1006,0,U,43582,999,5373,0,.91E-6,0
BEIDOU-3 M12 (C26),2018-067A,2026-06-21T04:54:39.987072,1.86227642,.00078246,54.1808,180.9038,29.8811,330.1852,0,U,43602,999,5319,0,.79E-6,0
BEIDOU-3 M11 (C25),2018-067B,2026-06-22T09:55:37.560288,1.86227153,.00045153,54.1780,180.8264,12.6670,347.3693,0,U,43603,999,5324,0,.93E-6,0
BEIDOU-3 M13 (C32),2018-072A,2026-06-21T07:04:08.624928,1.86231065,.00071371,56.6282,62.5240,330.1286,29.8688,0,U,43622,999,5273,0,-.81E-6,0
BEIDOU-3 M14 (C33),2018-072B,2026-06-21T03:50:21.997248,1.86231110,.00061203,56.6300,62.5228,1.7619,358.2786,0,U,43623,999,5272,0,-.8E-6,0
BEIDOU-3 M16 (C35),2018-078A,2026-06-20T05:47:32.108640,1.86232267,.00071351,54.0868,299.8789,41.0909,318.9600,0,U,43647,999,5221,0,-.9E-6,0
BEIDOU-3 M15 (C34),2018-078B,2026-06-21T23:33:18.753984,1.86232437,.00040314,54.0808,299.8183,57.9130,302.1223,0,U,43648,999,5226,0,-.102E-5,0
BEIDOU-3 G1 (C59),2018-085A,2026-06-22T18:37:49.448064,1.00270533,.00082536,2.8837,97.2197,350.4877,262.6345,0,U,43683,999,2811,0,-.107E-5,0
COSMOS 2529 (757),2018-086A,2026-06-22T08:13:55.563744,2.13101935,.00120818,64.2950,192.4203,256.4451,103.4674,0,U,43687,999,5939,0,.86E-6,0
BEIDOU-3 M17 (C36),2018-093A,2026-06-22T07:19:37.240896,1.86228482,.00101691,54.1693,182.1222,292.4394,176.2951,0,U,43706,999,5163,0,.91E-6,0
BEIDOU-3 M18 (C37),2018-093B,2026-06-22T00:09:18.328032,1.86226526,.00080485,54.1700,182.1243,320.9981,38.9698,0,U,43707,999,5162,0,.88E-6,0
GPS BIII-1  (PRN 04),2018-109A,2026-06-22T06:41:49.559712,2.00561970,.00382922,55.6852,91.9854,197.8099,2.4950,0,U,43873,999,5517,0,-.39E-6,0
BEIDOU-3 IGSO-1 (C38),2019-023A,2026-06-20T13:09:30.279168,1.00290704,.00256163,58.6998,37.6136,225.5297,321.1703,0,U,44204,999,724,0,-.229E-5,0
