GSAT0215 (GALILEO 19)   
1 43055U 17079A   26173.29478891  .00000035  00000+0  00000+0 0  9994
2 43055  55.0724 221.3660 0003387 264.6914  95.3449  1.70474609 53072
GSAT0216 (GALILEO 20)   
1 43056U 17079B   26168.89331476  .00000034  00000+0  00000+0 0  9991
2 43056  55.0732 221.4873 0004317 276.2784  83.7610  1.70474666 53015
GSAT0217 (GALILEO 21)   
1 43057U 17079C   26173.22015162  .00000034  00000+0  00000+0 0  9996
2 43057  55.0697 221.3658 0003944 287.9119  72.1199  1.70474640 53074
GSAT0218 (GALILEO 22)   
1 43058U 17079D   26171.68048465  .00000026  00000+0  00000+0 0  9998
2 43058  55.0711 221.4058 0005507 273.6284  86.3834  1.70474354 53074
BEIDOU-3 M7             
1 43107U 18003A   26171.57230178 -.00000093  00000+0  00000+0 0  9998
2 43107  54.3246 302.1971 0004847  94.8632 265.1875  1.86227868 57418
BEIDOU-3 M8             
1 43108U 18003B   26171.51700953 -.00000093  00000+0  00000+0 0  9996
2 43108  54.3172 302.1809 0002615 260.4330  99.5328  1.86231030 57423
BEIDOU-3 M4             
1 43207U 18018A   26173.03393713 -.00000087  00000+0  00000+0 0  9996
2 43207  56.6551  62.9879 0007664  21.5278 338.5408  1.86231234 56838
BEIDOU-3 M3             
1 43208U 18018B   26173.10042016 -.00000087  00000+0  00000+0 0  9992
2 43208  56.6552  62.9897 0008415 342.8071  17.2007  1.86231089 56839
BEIDOU-3 M9             
1 43245U 18029A   26173.85522772 -.00000106  00000+0  00000+0 0  9991
2 43245  54.1876 299.7497 0000990 157.0412 202.9586  1.86228524 56007
BEIDOU-3 M10            
1 43246U 18029B   26173.25260762 -.00000104  00000+0  00000+0 0  9992
2 43246  54.1864 299.7978 0003758  40.4191 319.6047  1.86229003 55979
IRNSS-1I                
1 43286U 18035A   26166.83981681  .00000062  00000+0  00000+0 0  9991
2 43286  28.7520  74.2167 0017811 181.5598   5.5147  1.00272046 30064
COSMOS 2527 [GLONASS-M] 
1 43508U 18053A   26170.90026155 -.00000034  00000+0  00000+0 0  9997
2 43508  65.5791  73.8170 0006906 238.7549 121.2143  2.13102048 62339
BEIDOU-2 IGSO-7         
1 43539U 18057A   26172.91033100 -.00000017  00000+0  00000+0 0  9997
2 43539  55.1965 163.0153 0104952 238.0014 306.3526  1.00249439 29171
GSAT0221 (GALILEO 25)   
1 43564U 18060A   26170.99789157 -.00000095  00000+0  00000+0 0  9991
2 43564  57.1685 341.7044 0002564 301.8094  58.1599  1.70476011 49211
GSAT0222 (GALILEO 26)   
1 43565U 18060B   26172.39072362 -.00000096  00000+0  00000+0 0  9992
2 43565  57.1710 341.6704 0002034 246.5054 113.4691  1.70475809 49285
GSAT0219 (GALILEO 23)   
1 43566U 18060C   26172.61160917 -.00000097  00000+0  00000+0 0  9993
2 43566  57.1708 341.6659 0001922 320.6599  39.3222  1.70476064 49263
GSAT0220 (GALILEO 24)   
1 43567U 18060D   26172.83260861 -.00000097  00000+0  00000+0 0  9997
2 43567  57.1676 341.6592 0001967 309.6967  50.2822  1.70476014 49251
BEIDOU-3 M5             
1 43581U 18062A   26171.32881234  .00000068  00000+0  00000+0 0  9998
2 43581  54.0853 182.1966 0005718 290.4815  69.4793  1.86228556 53695
BEIDOU-3 M6             
1 43582U 18062B   26173.34014156  .00000091  00000+0  00000+0 0  9990
2 43582  54.0853 182.1173 0005022   8.9352 351.1006  1.86227655 53734
BEIDOU-3 M12            
1 43602U 18067A   26172.20462948  .00000079  00000+0  00000+0 0  9994
2 43602  54.1808 180.9038 0007824  29.8811 330.1852  1.86227642 53190
BEIDOU-3 M11            
1 43603U 18067B   26173.41362917  .00000093  00000+0  00000+0 0  9990
2 43603  54.1780 180.8264 0004515  12.6670 347.3693  1.86227153 53243
BEIDOU-3 M13            
1 43622U 18072A   26172.29454427 -.00000081  00000+0  00000+0 0  9998
2 43622  56.6282  62.5240 0007137 330.1286  29.8688  1.86231065 52738
BEIDOU-3 M14            
1 43623U 18072B   26172.15997682 -.00000080  00000+0  00000+0 0  9998
2 43623  56.6300  62.5228 0006120   1.7619 358.2786  1.86231110 52726
BEIDOU-3 M16            
1 43647U 18078A   26171.24134385 -.00000090  00000+0  00000+0 0  9993
2 43647  54.0868 299.8789 0007135  41.0909 318.9600  1.86232267 52212
BEIDOU-3 M15            
1 43648U 18078B   26172.98146706 -.00000102  00000+0  00000+0 0  9990
2 43648  54.0808 299.8183 0004031  57.9130 302.1223  1.86232437 52269
BEIDOU-3 G1             
1 43683U 18085A   26173.77626676 -.00000107  00000+0  00000+0 0  9999
2 43683   2.8837  97.2197 0008253 350.4877 262.6345  1.00270533 28112
COSMOS 2529 [GLONASS-M] 
1 43687U 18086A   26173.34300421  .00000086  00000+0  00000+0 0  9999
2 43687  64.2950 192.4203 0012081 256.4451 103.4674  2.13101935 59392
BEIDOU-3 M17            
1 43706U 18093A   26173.30529214  .00000091  00000+0  00000+0 0  9994
2 43706  54.1693 182.1222 0010169 292.4394 176.2951  1.86228482 51635
BEIDOU-3 M18            
1 43707U 18093B   26173.00646213  .00000088  00000+0  00000+0 0  9997
2 43707  54.1700 182.1243 0008048 320.9981  38.9698  1.86226526 51628
NAVSTAR 77 (USA 289)    
1 43873U 18109A   26173.27904583 -.00000039  00000+0  00000+0 0  9992
2 43873  55.6852  91.9854 0038292 197.8099   2.4950  2.00561970 55179
BEIDOU-3 IGSO-1         
1 44204U 19023A   26171.54826712 -.00000229  00000+0  00000+0 0  9993
2 44204  58.6998  37.6136 0025616 225.5297 321.1703  1.00290704  7242
